CCSDS_OMM_VERS = 2.0
CREATION_DATE  = 
ORIGINATOR     = 

OBJECT_NAME    = UNKNOWN
OBJECT_ID      = 
CENTER_NAME    = EARTH
REF_FRAME      = TEME
TIME_SYSTEM    = UTC
MEAN_ELEMENT_THEORY = SGP/SGP4

EPOCH          = 2026-03-30T14:13:51.655872
MEAN_MOTION    = 13.54691550
ECCENTRICITY   = .0108122
INCLINATION    = 99.4200
RA_OF_ASC_NODE = 143.4878
ARG_OF_PERICENTER = 36.9240
MEAN_ANOMALY   = 323.9279

EPHEMERIS_TYPE = 0
CLASSIFICATION_TYPE = U
NORAD_CAT_ID   = 82311
ELEMENT_SET_NO = 999
REV_AT_EPOCH   = 56492
BSTAR          = .83978E-3
MEAN_MOTION_DOT = .556E-5
MEAN_MOTION_DDOT = 0

CCSDS_OMM_VERS = 2.0
CREATION_DATE  = 
ORIGINATOR     = 

OBJECT_NAME    = UNKNOWN
OBJECT_ID      = 
CENTER_NAME    = EARTH
REF_FRAME      = TEME
TIME_SYSTEM    = UTC
MEAN_ELEMENT_THEORY = SGP/SGP4

EPOCH          = 2026-03-30T15:07:08.097312
MEAN_MOTION    = 13.15723007
ECCENTRICITY   = .0451211
INCLINATION    = 66.9381
RA_OF_ASC_NODE = 322.9427
ARG_OF_PERICENTER = 96.1221
MEAN_ANOMALY   = 269.1407

EPHEMERIS_TYPE = 0
CLASSIFICATION_TYPE = U
NORAD_CAT_ID   = 82363
ELEMENT_SET_NO = 999
REV_AT_EPOCH   = 30445
BSTAR          = .18281E-2
MEAN_MOTION_DOT = .11E-4
MEAN_MOTION_DDOT = 0

CCSDS_OMM_VERS = 2.0
CREATION_DATE  = 
ORIGINATOR     = 

OBJECT_NAME    = UNKNOWN
OBJECT_ID      = 
CENTER_NAME    = EARTH
REF_FRAME      = TEME
TIME_SYSTEM    = UTC
MEAN_ELEMENT_THEORY = SGP/SGP4

EPOCH          = 2026-03-28T19:09:21.939840
MEAN_MOTION    = 13.98234539
ECCENTRICITY   = .0083803
INCLINATION    = 98.8938
RA_OF_ASC_NODE = 104.6572
ARG_OF_PERICENTER = 46.3000
MEAN_ANOMALY   = 314.5067

EPHEMERIS_TYPE = 0
CLASSIFICATION_TYPE = U
NORAD_CAT_ID   = 82369
ELEMENT_SET_NO = 999
REV_AT_EPOCH   = 57199
BSTAR          = .55497E-4
MEAN_MOTION_DOT = .39E-6
MEAN_MOTION_DDOT = 0

CCSDS_OMM_VERS = 2.0
CREATION_DATE  = 
ORIGINATOR     = 

OBJECT_NAME    = UNKNOWN
OBJECT_ID      = 
CENTER_NAME    = EARTH
REF_FRAME      = TEME
TIME_SYSTEM    = UTC
MEAN_ELEMENT_THEORY = SGP/SGP4

EPOCH          = 2026-03-31T14:28:26.031648
MEAN_MOTION    = 14.86920300
ECCENTRICITY   = .0007864
INCLINATION    = 98.3902
RA_OF_ASC_NODE = 325.9403
ARG_OF_PERICENTER = 140.4198
MEAN_ANOMALY   = 219.7591

EPHEMERIS_TYPE = 0
CLASSIFICATION_TYPE = U
NORAD_CAT_ID   = 82381
ELEMENT_SET_NO = 999
REV_AT_EPOCH   = 52695
BSTAR          = .34968E-2
MEAN_MOTION_DOT = .31342E-3
MEAN_MOTION_DDOT = 0

CCSDS_OMM_VERS = 2.0
CREATION_DATE  = 
ORIGINATOR     = 

OBJECT_NAME    = UNKNOWN
OBJECT_ID      = 
CENTER_NAME    = EARTH
REF_FRAME      = TEME
TIME_SYSTEM    = UTC
MEAN_ELEMENT_THEORY = SGP/SGP4

EPOCH          = 2026-03-29T01:38:22.801344
MEAN_MOTION    = 15.05089085
ECCENTRICITY   = .0009435
INCLINATION    = 86.6589
RA_OF_ASC_NODE = 109.6089
ARG_OF_PERICENTER = 121.5263
MEAN_ANOMALY   = 238.6896

EPHEMERIS_TYPE = 0
CLASSIFICATION_TYPE = U
NORAD_CAT_ID   = 82402
ELEMENT_SET_NO = 999
REV_AT_EPOCH   = 47045
BSTAR          = .51113E-3
MEAN_MOTION_DOT = .7305E-4
MEAN_MOTION_DDOT = 0

CCSDS_OMM_VERS = 2.0
CREATION_DATE  = 
ORIGINATOR     = 

OBJECT_NAME    = UNKNOWN
OBJECT_ID      = 
CENTER_NAME    = EARTH
REF_FRAME      = TEME
TIME_SYSTEM    = UTC
MEAN_ELEMENT_THEORY = SGP/SGP4

EPOCH          = 2026-03-26T03:26:59.749440
MEAN_MOTION    = 14.59007806
ECCENTRICITY   = .0057389
INCLINATION    = 74.0054
RA_OF_ASC_NODE = 143.2911
ARG_OF_PERICENTER = 281.9385
MEAN_ANOMALY   = 77.5350

EPHEMERIS_TYPE = 0
CLASSIFICATION_TYPE = U
NORAD_CAT_ID   = 82432
ELEMENT_SET_NO = 999
REV_AT_EPOCH   = 49798
BSTAR          = .31017E-3
MEAN_MOTION_DOT = .1459E-4
MEAN_MOTION_DDOT = 0

CCSDS_OMM_VERS = 2.0
CREATION_DATE  = 
ORIGINATOR     = 

OBJECT_NAME    = UNKNOWN
OBJECT_ID      = 
CENTER_NAME    = EARTH
REF_FRAME      = TEME
TIME_SYSTEM    = UTC
MEAN_ELEMENT_THEORY = SGP/SGP4

EPOCH          = 2026-03-30T02:22:55.128288
MEAN_MOTION    = 15.05376640
ECCENTRICITY   = .0007352
INCLINATION    = 85.8751
RA_OF_ASC_NODE = 141.9197
ARG_OF_PERICENTER = 219.7725
MEAN_ANOMALY   = 140.2971

EPHEMERIS_TYPE = 0
CLASSIFICATION_TYPE = U
NORAD_CAT_ID   = 82448
ELEMENT_SET_NO = 999
REV_AT_EPOCH   = 45318
BSTAR          = .53546E-3
MEAN_MOTION_DOT = .7708E-4
MEAN_MOTION_DDOT = 0

CCSDS_OMM_VERS = 2.0
CREATION_DATE  = 
ORIGINATOR     = 

OBJECT_NAME    = UNKNOWN
OBJECT_ID      = 
CENTER_NAME    = EARTH
REF_FRAME      = TEME
TIME_SYSTEM    = UTC
MEAN_ELEMENT_THEORY = SGP/SGP4

EPOCH          = 2026-03-31T08:59:20.381280
MEAN_MOTION    = 12.39713139
ECCENTRICITY   = .0094132
INCLINATION    = 102.1963
RA_OF_ASC_NODE = 51.7419
ARG_OF_PERICENTER = 7.0530
MEAN_ANOMALY   = 353.1834

EPHEMERIS_TYPE = 0
CLASSIFICATION_TYPE = U
NORAD_CAT_ID   = 82453
ELEMENT_SET_NO = 999
REV_AT_EPOCH   = 55952
BSTAR          = .35382E-3
MEAN_MOTION_DOT = .2E-7
MEAN_MOTION_DDOT = 0

CCSDS_OMM_VERS = 2.0
CREATION_DATE  = 
ORIGINATOR     = 

OBJECT_NAME    = UNKNOWN
OBJECT_ID      = 
CENTER_NAME    = EARTH
REF_FRAME      = TEME
TIME_SYSTEM    = UTC
MEAN_ELEMENT_THEORY = SGP/SGP4

EPOCH          = 2026-03-31T07:03:19.148832
MEAN_MOTION    = 13.55844425
ECCENTRICITY   = .0043675
INCLINATION    = 99.3475
RA_OF_ASC_NODE = 111.3120
ARG_OF_PERICENTER = 278.9248
MEAN_ANOMALY   = 80.6948

EPHEMERIS_TYPE = 0
CLASSIFICATION_TYPE = U
NORAD_CAT_ID   = 82484
ELEMENT_SET_NO = 999
REV_AT_EPOCH   = 60534
BSTAR          = .40601E-3
MEAN_MOTION_DOT = .243E-5
MEAN_MOTION_DDOT = 0

CCSDS_OMM_VERS = 2.0
CREATION_DATE  = 
ORIGINATOR     = 

OBJECT_NAME    = UNKNOWN
OBJECT_ID      = 
CENTER_NAME    = EARTH
REF_FRAME      = TEME
TIME_SYSTEM    = UTC
MEAN_ELEMENT_THEORY = SGP/SGP4

EPOCH          = 2026-03-31T11:38:11.020128
MEAN_MOTION    = 14.90841589
ECCENTRICITY   = .0009199
INCLINATION    = 74.0064
RA_OF_ASC_NODE = 164.3852
ARG_OF_PERICENTER = 289.1635
MEAN_ANOMALY   = 70.8551

EPHEMERIS_TYPE = 0
CLASSIFICATION_TYPE = U
NORAD_CAT_ID   = 82494
ELEMENT_SET_NO = 999
REV_AT_EPOCH   = 10114
BSTAR          = .2146E-2
MEAN_MOTION_DOT = .21182E-3
MEAN_MOTION_DDOT = 0

CCSDS_OMM_VERS = 2.0
CREATION_DATE  = 
ORIGINATOR     = 

OBJECT_NAME    = UNKNOWN
OBJECT_ID      = 
CENTER_NAME    = EARTH
REF_FRAME      = TEME
TIME_SYSTEM    = UTC
MEAN_ELEMENT_THEORY = SGP/SGP4

EPOCH          = 2026-03-30T09:47:36.206880
MEAN_MOTION    = 14.19362426
ECCENTRICITY   = .012113
INCLINATION    = 70.9649
RA_OF_ASC_NODE = 135.8098
ARG_OF_PERICENTER = 309.3428
MEAN_ANOMALY   = 49.7009

EPHEMERIS_TYPE = 0
CLASSIFICATION_TYPE = U
NORAD_CAT_ID   = 82500
ELEMENT_SET_NO = 999
REV_AT_EPOCH   = 63422
BSTAR          = .16881E-2
MEAN_MOTION_DOT = .3771E-4
MEAN_MOTION_DDOT = 0

CCSDS_OMM_VERS = 2.0
CREATION_DATE  = 
ORIGINATOR     = 

OBJECT_NAME    = UNKNOWN
OBJECT_ID      = 
CENTER_NAME    = EARTH
REF_FRAME      = TEME
TIME_SYSTEM    = UTC
MEAN_ELEMENT_THEORY = SGP/SGP4

EPOCH          = 2026-03-30T02:38:22.439616
MEAN_MOTION    = 14.36174335
ECCENTRICITY   = .01328
INCLINATION    = 73.2810
RA_OF_ASC_NODE = 335.6153
ARG_OF_PERICENTER = 100.1683
MEAN_ANOMALY   = 48.5375

EPHEMERIS_TYPE = 0
CLASSIFICATION_TYPE = U
NORAD_CAT_ID   = 82524
ELEMENT_SET_NO = 999
REV_AT_EPOCH   = 59244
BSTAR          = .14706E-2
MEAN_MOTION_DOT = .4713E-4
MEAN_MOTION_DDOT = 0

